NORAD_CAT_ID,OBJECT_NAME,OBJECT_TYPE,EPOCH,MEAN_MOTION,ECCENTRICITY,INCLINATION,RA_OF_ASC_NODE,ARG_OF_PERICENTER,MEAN_ANOMALY,BSTAR,MEAN_MOTION_DOT,MEAN_MOTION_DDOT,TLE_LINE0,TLE_LINE1,TLE_LINE2,SEMIMAJOR_AXIS,PERIOD,APOGEE,PERIGEE,DECAYED
49163.0,STARLINK-3088,PAYLOAD,2022-09-23 21:09:54,14.98346533,0.0003054,69.9998,218.4423,254.6316,105.4506,0.00010147,1.118e-05,0.0,0 STARLINK-3088,1 49163U 21082AK  22266.88188631  .00001118  00000-0  10147-3 0  9994,2 49163  69.9998 218.4423 0003054 254.6316 105.4506 14.98346533 58479,6950.142,96.106,574.129,569.884,0.0
49163.0,STARLINK-3088,PAYLOAD,2022-09-24 03:34:26,14.983602,0.0003085,69.9997,217.7693,253.5957,106.4863,-9.8019e-05,-1.263e-05,0.0,0 STARLINK-3088,1 49163U 21082AK  22267.14892075 -.00001263  00000-0 -98019-4 0  9996,2 49163  69.9997 217.7693 0003085 253.5957 106.4863 14.98360200 58522,6950.1,96.105,574.109,569.82,0.0
49163.0,STARLINK-3088,PAYLOAD,2022-09-24 08:22:50,14.98351705,0.0003061999999999,70.0,217.2644,254.0337,106.0485,0.00016805,1.914e-05,0.0,0 STARLINK-3088,1 49163U 21082AK  22267.34919815  .00001914  00000-0  16805-3 0  9993,2 49163  70.0000 217.2644 0003062 254.0337 106.0485 14.98351705 58542,6950.126,96.106,574.119,569.863,0.0
49163.0,STARLINK-3088,PAYLOAD,2022-09-25 03:36:27,14.98339595,0.000301,70.0016,215.2449,252.6536,107.4294,0.00018999,2.175e-05,0.0,0 STARLINK-3088,1 49163U 21082AK  22268.15031993  .00002175  00000-0  18999-3 0  9991,2 49163  70.0016 215.2449 0003010 252.6536 107.4294 14.98339595 58678,6950.163000000001,96.106,574.12,569.936,0.0
49163.0,STARLINK-3088,PAYLOAD,2022-09-25 06:48:44,14.98331729,0.0002374,69.9999,214.9052,241.2575,118.8346,8.7123e-05,9.47e-06,0.0,0 STARLINK-3088,1 49163U 21082AK  22268.28384624  .00000947  00000-0  87123-4 0  9998,2 49163  69.9999 214.9052 0002374 241.2575 118.8346 14.98331729 58697,6950.188,96.107,573.703,570.403,0.0
49163.0,STARLINK-3088,PAYLOAD,2022-09-26 08:26:53,14.98324082,0.0002665,70.0008,212.2149,258.8223,101.2636,-0.00012652,-1.602e-05,0.0,0 STARLINK-3088,1 49163U 21082AK  22269.35201337 -.00001602  00000-0 -12652-3 0  9991,2 49163  70.0008 212.2149 0002665 258.8223 101.2636 14.98324082 58845,6950.2109999999975,96.107,573.928,570.224,0.0
49163.0,STARLINK-3088,PAYLOAD,2022-09-27 03:40:30,14.98329424,0.0003227,70.0001,210.1948,253.0311,107.0495,3.7194e-05,3.51e-06,0.0,0 STARLINK-3088,1 49163U 21082AK  22270.15312858  .00000351  00000-0  37194-4 0  9999,2 49163  70.0001 210.1948 0003227 253.0311 107.0495 14.98329424 58978,6950.195,96.107,574.302,569.817,0.0
49163.0,STARLINK-3088,PAYLOAD,2022-09-28 02:06:22,14.983391199999998,0.0003078999999999,70.0025,207.8398,248.7051,111.378,0.00034625,4.042e-05,0.0,0 STARLINK-3088,1 49163U 21082AK  22271.08776383  .00004042  00000-0  34625-3 0  9995,2 49163  70.0025 207.8398 0003079 248.7051 111.3780 14.98339120 59119,6950.165,96.106,574.17,569.89,0.0
49163.0,STARLINK-3088,PAYLOAD,2022-09-28 05:18:39,14.98327665,0.000304,70.002,207.5026,255.98,104.1021,0.00010127,1.115e-05,0.0,0 STARLINK-3088,1 49163U 21082AK  22271.22128947  .00001115  00000-0  10127-3 0  9997,2 49163  70.0020 207.5026 0003040 255.9800 104.1021 14.98327665 59130,6950.2,96.107,574.178,569.952,0.0
49163.0,STARLINK-3088,PAYLOAD,2022-09-29 05:20:40,14.98324343,0.0002927,70.0026,204.9782,252.0225,108.0616,4.4891e-05,4.43e-06,0.0,0 STARLINK-3088,1 49163U 21082AK  22272.22269344  .00000443  00000-0  44891-4 0  9994,2 49163  70.0026 204.9782 0002927 252.0225 108.0616 14.98324343 59287,6950.21,96.107,574.11,570.0409999999998,0.0
49163.0,STARLINK-3088,PAYLOAD,2022-09-29 13:21:21,14.98324043,0.0003109,70.0023,204.1355,249.4308,110.6517,4.5055e-05,4.45e-06,0.0,0 STARLINK-3088,1 49163U 21082AK  22272.55649418  .00000445  00000-0  45055-4 0  9999,2 49163  70.0023 204.1355 0003109 249.4308 110.6517 14.98324043 59328,6950.2109999999975,96.107,574.237,569.915,0.0
49163.0,STARLINK-3088,PAYLOAD,2022-09-29 19:45:53,14.98329313,0.0003005,70.0035,203.4643,247.5263,112.5578,0.00015009,1.698e-05,0.0,0 STARLINK-3088,1 49163U 21082AK  22272.82353128  .00001698  00000-0  15009-3 0  9995,2 49163  70.0035 203.4643 0003005 247.5263 112.5578 14.98329313 59364,6950.195,96.107,574.149,569.971,0.0
49163.0,STARLINK-3088,PAYLOAD,2022-09-30 02:10:25,14.98336016,0.0003028,70.0024,202.7886,253.2807,106.802,0.00030598,3.5600000000000005e-05,0.0,0 STARLINK-3088,1 49163U 21082AK  22273.09056852  .00003560  00000-0  30598-3 0  9999,2 49163  70.0024 202.7886 0003028 253.2807 106.8020 14.98336016 59418,6950.174,96.107,574.144,569.935,0.0
49163.0,STARLINK-3088,PAYLOAD,2022-09-30 05:22:41,14.9833642,0.0003028,70.0024,202.452,253.7898,106.2928,0.00032975,3.844e-05,0.0,0 STARLINK-3088,1 49163U 21082AK  22273.22408862  .00003844  00000-0  32975-3 0  9992,2 49163  70.0024 202.4520 0003028 253.7898 106.2928 14.98336420 59426,6950.1730000000025,96.107,574.143,569.934,0.0
49163.0,STARLINK-3088,PAYLOAD,2022-09-30 19:47:53,14.98342463,0.0003099,70.002,200.938,253.0848,106.9971,0.0005375,6.328e-05,0.0,0 STARLINK-3088,1 49163U 21082AK  22273.82492743  .00006328  00000-0  53750-3 0  9993,2 49163  70.0020 200.9380 0003099 253.0848 106.9971 14.98342463 59514,6950.154,96.106,574.173,569.865,0.0
49163.0,STARLINK-3088,PAYLOAD,2022-10-01 03:48:33,14.98344695,0.0002996999999999,70.0029,200.0965,237.933,122.1539,0.00040064,4.692e-05,0.0,0 STARLINK-3088,1 49163U 21082AK  22274.15872360  .00004692  00000-0  40064-3 0  9993,2 49163  70.0029 200.0965 0002997 237.9330 122.1539 14.98344695 59571,6950.147,96.106,574.095,569.929,0.0
49163.0,STARLINK-3088,PAYLOAD,2022-10-01 05:24:42,14.98335318,0.0002838,70.0025,199.9268,252.5737,107.5112,0.00017279,1.97e-05,0.0,0 STARLINK-3088,1 49163U 21082AK  22274.22548724  .00001970  00000-0  17279-3 0  9993,2 49163  70.0025 199.9268 0002838 252.5737 107.5112 14.98335318 59584,6950.176,96.107,574.014,570.069,0.0
49163.0,STARLINK-3088,PAYLOAD,2022-10-01 21:26:02,14.98348032,0.0003194,70.0014,198.2443,250.8017,109.2796,0.00041557,4.871e-05,0.0,0 STARLINK-3088,1 49163U 21082AK  22274.89307899  .00004871  00000-0  41557-3 0  9991,2 49163  70.0014 198.2443 0003194 250.8017 109.2796 14.98348032 59671,6950.137,96.106,574.222,569.7819999999998,0.0
49163.0,STARLINK-3088,PAYLOAD,2022-10-02 05:26:42,14.98334559,0.0002991,70.0024,197.4012,254.0027,106.0802,3.2305e-05,2.93e-06,0.0,0 STARLINK-3088,1 49163U 21082AK  22275.22688040  .00000293  00000-0  32305-4 0  9995,2 49163  70.0024 197.4012 0002991 254.0027 106.0802 14.98334559 59735,6950.179,96.107,574.123,569.965,0.0
49163.0,STARLINK-3088,PAYLOAD,2022-10-02 11:51:14,14.98328588,0.00026,70.003,196.7289,249.8935,110.1944,-0.00016572,-2.07e-05,0.0,0 STARLINK-3088,1 49163U 21082AK  22275.49392131 -.00002070  00000-0 -16572-3 0  9991,2 49163  70.0030 196.7289 0002600 249.8935 110.1944 14.98328588 59768,6950.196999999999,96.107,573.869,570.255,0.0
49163.0,STARLINK-3088,PAYLOAD,2022-10-02 19:51:55,14.98331848,0.0002883999999999,70.0024,195.8893,243.4762,116.6102,2.609e-05,2.18e-06,0.0,0 STARLINK-3088,1 49163U 21082AK  22275.82772572  .00000218  00000-0  26090-4 0  9996,2 49163  70.0024 195.8893 0002884 243.4762 116.6102 14.98331848 59810,6950.187,96.107,574.057,570.048,0.0
49163.0,STARLINK-3088,PAYLOAD,2022-10-03 03:52:35,14.98332943,0.0002947,70.0019,195.0471,245.3257,114.7595,4.7698e-05,4.76e-06,0.0,0 STARLINK-3088,1 49163U 21082AK  22276.16152653  .00000476  00000-0  47698-4 0  9999,2 49163  70.0019 195.0471 0002947 245.3257 114.7595 14.98332943 59876,6950.184,96.107,574.097,570.001,0.0
49163.0,STARLINK-3088,PAYLOAD,2022-10-03 05:28:43,14.98334563,0.000296,70.0018,194.8786,249.2316,110.8526,4.1869e-05,4.07e-06,0.0,0 STARLINK-3088,1 49163U 21082AK  22276.22828536  .00000407  00000-0  41869-4 0  9994,2 49163  70.0018 194.8786 0002960 249.2316 110.8526 14.98334563 59876,6950.179,96.107,574.101,569.987,0.0
49163.0,STARLINK-3088,PAYLOAD,2022-10-04 02:18:27,14.98356593,0.0003043,70.0018,192.6908,249.5327,110.5506,0.00094231,0.00011176,0.0,0 STARLINK-3088,1 49163U 21082AK  22277.09615567  .00011176  00000-0  94231-3 0  9993,2 49163  70.0018 192.6908 0003043 249.5327 110.5506 14.98356593 60016,6950.111,96.105,574.091,569.861,0.0
49163.0,STARLINK-3088,PAYLOAD,2022-10-04 05:30:43,14.98355716,0.0003122,70.0016,192.3546,252.073,108.0088,0.00091262,0.0001082,0.0,0 STARLINK-3088,1 49163U 21082AK  22277.22967506  .00010820  00000-0  91262-3 0  9997,2 49163  70.0016 192.3546 0003122 252.0730 108.0088 14.98355716 60028,6950.113,96.105,574.148,569.809,0.0
49163.0,STARLINK-3088,PAYLOAD,2022-10-05 03:56:36,14.983403400000002,0.0003412,70.0017,189.9978,252.6546,107.424,0.00022194,2.557e-05,0.0,0 STARLINK-3088,1 49163U 21082AK  22278.16431429  .00002557  00000-0  22194-3 0  9997,2 49163  70.0017 189.9978 0003412 252.6546 107.4240 14.98340340 60179,6950.161,96.106,574.3969999999998,569.655,0.0
49163.0,STARLINK-3088,PAYLOAD,2022-10-05 19:57:58,14.98311143,0.000377,70.0016,188.3139,266.6729,93.3998,-0.00087419,-0.00010504,0.0,0 STARLINK-3088,1 49163U 21082AK  22278.83192193 -.00010504  00000-0 -87419-3 0  9997,2 49163  70.0016 188.3139 0003770 266.6729  93.3998 14.98311143 60267,6950.251,96.108,574.736,569.496,0.0
49163.0,STARLINK-3088,PAYLOAD,2022-10-06 02:22:32,14.9825704,0.0003501,70.002,187.6414,251.6064,108.4714,-0.002072,-0.00024683,0.0,0 STARLINK-3088,1 49163U 21082AK  22279.09898838 -.00024683  00000-0 -20720-2 0  9999,2 49163  70.0020 187.6414 0003501 251.6064 108.4714 14.98257040 60313,6950.419,96.112,574.717,569.85,0.0
49163.0,STARLINK-3088,PAYLOAD,2022-10-06 03:58:41,14.98252625,0.0003153,70.0025,187.472,270.1732,89.9066,-0.0020987,-0.00024996,0.0,0 STARLINK-3088,1 49163U 21082AK  22279.16575437 -.00024996  00000-0 -20987-2 0  9996,2 49163  70.0025 187.4720 0003153 270.1732  89.9066 14.98252625 60314,6950.432,96.112,574.489,570.106,0.0
